{
    "provinces": [
        {
            "province": "An Giang",
            "postalCode": "880000",
            "latitude": "10.5",
            "longitude": "105.16667",
            "country": "Vietnam"
        },
        {
            "province": "Thành phố Long Xuyên",
            "postalCode": "880000",
            "latitude": "10.3864",
            "longitude": "105.4352",
            "country": "Vietnam"
        },
        {
            "province": "Thành phố Long Xuyên",
            "postalCode": "880000",
            "latitude": "10.3864",
            "longitude": "105.4352"
        },
        {
            "province": "Thành phố Châu Đốc",
            "postalCode": "880200",
            "latitude": "10.7002",
            "longitude": "105.1178"
        },
        {
            "province": "Thị xã Tân Châu",
            "postalCode": "880300",
            "latitude": "10.8332",
            "longitude": "105.2301"
        },
        {
            "province": "Huyện An Phú",
            "postalCode": "880400",
            "latitude": "10.8553",
            "longitude": "105.0783"
        },
        {
            "province": "Huyện Châu Phú",
            "postalCode": "880500",
            "latitude": "10.6227",
            "longitude": "105.2517"
        },
        {
            "province": "Huyện Châu Thành",
            "postalCode": "880600",
            "latitude": "10.4576",
            "longitude": "105.3530"
        },
        {
            "province": "Huyện Chợ Mới",
            "postalCode": "880700",
            "latitude": "10.4767",
            "longitude": "105.4206"
        },
        {
            "province": "Huyện Phú Tân",
            "postalCode": "880800",
            "latitude": "10.6734",
            "longitude": "105.3079"
        },
        {
            "province": "Huyện Thoại Sơn",
            "postalCode": "880900",
            "latitude": "10.3323",
            "longitude": "105.2843"
        },
        {
            "province": "Huyện Tịnh Biên",
            "postalCode": "881000",
            "latitude": "10.5315",
            "longitude": "105.0494"
        },
        {
            "province": "Huyện Tri Tôn",
            "postalCode": "881100",
            "latitude": "10.3691",
            "longitude": "105.0195"
        },
        {
            "province": "Hà Nội",
            "postalCode": "100000",
            "latitude": "21.0285",
            "longitude": "105.8542",
            "country": "Vietnam"
        },
        {
            "province": "Quận Ba Đình",
            "postalCode": "111000",
            "latitude": "21.0333",
            "longitude": "105.8142"
        },
        {
            "province": "Quận Hoàn Kiếm",
            "postalCode": "110000",
            "latitude": "21.0285",
            "longitude": "105.8482"
        },
        {
            "province": "Quận Đống Đa",
            "postalCode": "115000",
            "latitude": "21.0181",
            "longitude": "105.8320"
        },
        {
            "province": "Quận Hai Bà Trưng",
            "postalCode": "116000",
            "latitude": "21.0117",
            "longitude": "105.8496"
        },
        {
            "province": "Quận Cầu Giấy",
            "postalCode": "113000",
            "latitude": "21.0328",
            "longitude": "105.7903"
        },
        {
            "province": "Quận Thanh Xuân",
            "postalCode": "114000",
            "latitude": "20.9938",
            "longitude": "105.8104"
        },
        {
            "province": "Quận Tây Hồ",
            "postalCode": "117000",
            "latitude": "21.0710",
            "longitude": "105.8182"
        },
        {
            "province": "Quận Nam Từ Liêm",
            "postalCode": "118000",
            "latitude": "21.0031",
            "longitude": "105.7619"
        },
        {
            "province": "Quận Bắc Từ Liêm",
            "postalCode": "119000",
            "latitude": "21.0575",
            "longitude": "105.7636"
        },
        {
            "province": "Quận Hoàng Mai",
            "postalCode": "120000",
            "latitude": "20.9715",
            "longitude": "105.8605"
        },
        {
            "province": "Huyện Đông Anh",
            "postalCode": "123000",
            "latitude": "21.1386",
            "longitude": "105.8483"
        },
        {
            "province": "Huyện Gia Lâm",
            "postalCode": "124000",
            "latitude": "21.0071",
            "longitude": "105.9503"
        },
        {
            "province": "Huyện Thanh Trì",
            "postalCode": "125000",
            "latitude": "20.9225",
            "longitude": "105.8452"
        },
        {
            "province": "Huyện Sóc Sơn",
            "postalCode": "126000",
            "latitude": "21.2590",
            "longitude": "105.8450"
        },
        {
            "province": "Huyện Hoài Đức",
            "postalCode": "127000",
            "latitude": "21.0337",
            "longitude": "105.7082"
        },
        {
            "province": "Huyện Thạch Thất",
            "postalCode": "128000",
            "latitude": "21.0585",
            "longitude": "105.5847"
        },
        {
            "province": "Huyện Quốc Oai",
            "postalCode": "129000",
            "latitude": "20.9608",
            "longitude": "105.6686"
        },
        {
            "province": "Huyện Chương Mỹ",
            "postalCode": "130000",
            "latitude": "20.9071",
            "longitude": "105.6739"
        },
        {
            "province": "Huyện Thanh Oai",
            "postalCode": "131000",
            "latitude": "20.8753",
            "longitude": "105.7564"
        },
        {
            "province": "Huyện Ứng Hòa",
            "postalCode": "132000",
            "latitude": "20.7270",
            "longitude": "105.7746"
        },
        {
            "province": "Huyện Mỹ Đức",
            "postalCode": "133000",
            "latitude": "20.6886",
            "longitude": "105.7312"
        },
        {
            "province": "Huyện Ba Vì",
            "postalCode": "134000",
            "latitude": "21.2108",
            "longitude": "105.4221"
        },
        {
            "province": "Huyện Phúc Thọ",
            "postalCode": "135000",
            "latitude": "21.1142",
            "longitude": "105.5398"
        },
        {
            "province": "Huyện Đan Phượng",
            "postalCode": "136000",
            "latitude": "21.0870",
            "longitude": "105.6634"
        },
        {
            "province": "Huyện Mê Linh",
            "postalCode": "137000",
            "latitude": "21.1805",
            "longitude": "105.7415"
        }
    ]
}